[{"OBJECT_NAME":"S-NET A","OBJECT_ID":"2018-014J","EPOCH":"2026-03-09T17:45:22.875840","MEAN_MOTION":15.15637105,"ECCENTRICITY":0.00092363,"INCLINATION":97.5446,"RA_OF_ASC_NODE":334.3608,"ARG_OF_PERICENTER":10.8145,"MEAN_ANOMALY":349.3285,"EPHEMERIS_TYPE":0,"CLASSIFICATION_TYPE":"U","NORAD_CAT_ID":43188,"ELEMENT_SET_NO":999,"REV_AT_EPOCH":44369,"BSTAR":0.00039378194,"MEAN_MOTION_DOT":7.428e-5,"MEAN_MOTION_DDOT":0},{"OBJECT_NAME":"ICEYE-X47","OBJECT_ID":"2024-247N","EPOCH":"2026-03-09T23:06:42.412896","MEAN_MOTION":15.1223275,"ECCENTRICITY":0.0001319,"INCLINATION":44.9951,"RA_OF_ASC_NODE":166.568,"ARG_OF_PERICENTER":278.489,"MEAN_ANOMALY":81.5837,"EPHEMERIS_TYPE":0,"CLASSIFICATION_TYPE":"U","NORAD_CAT_ID":62389,"ELEMENT_SET_NO":999,"REV_AT_EPOCH":6715,"BSTAR":0.00039816081,"MEAN_MOTION_DOT":6.747e-5,"MEAN_MOTION_DDOT":0}]
